[{"OBJECT_NAME":"STARLINK-1954","OBJECT_ID":"2021-009H","EPOCH":"2026-03-09T23:20:25.352160","MEAN_MOTION":15.30849174,"ECCENTRICITY":0.00046184,"INCLINATION":53.0574,"RA_OF_ASC_NODE":8.8654,"ARG_OF_PERICENTER":103.3293,"MEAN_ANOMALY":256.8222,"EPHEMERIS_TYPE":0,"CLASSIFICATION_TYPE":"U","NORAD_CAT_ID":47555,"ELEMENT_SET_NO":999,"REV_AT_EPOCH":28100,"BSTAR":0.0022371791,"MEAN_MOTION_DOT":0.00067883,"MEAN_MOTION_DDOT":0},{"OBJECT_NAME":"STARLINK-34824","OBJECT_ID":"2025-161AD","EPOCH":"2026-03-09T21:26:00.314880","MEAN_MOTION":15.30184122,"ECCENTRICITY":9.551e-5,"INCLINATION":53.1586,"RA_OF_ASC_NODE":293.0639,"ARG_OF_PERICENTER":62.7634,"MEAN_ANOMALY":297.3464,"EPHEMERIS_TYPE":0,"CLASSIFICATION_TYPE":"U","NORAD_CAT_ID":65042,"ELEMENT_SET_NO":999,"REV_AT_EPOCH":3426,"BSTAR":0.00026940354,"MEAN_MOTION_DOT":7.624e-5,"MEAN_MOTION_DDOT":0}]
